[
    {
        "Altitude(m)": 604969.0892345944,
        "Argument of Periapsis(deg)": 0.0,
        "Eccentricity": 0.0,
        "Inclination(deg)": 60.0,
        "Latitude(deg)": -0.09274270173238958,
        "Longitude(deg)": -70.02247233787514,
        "Mean Anomaly(deg)": 0.0,
        "RAAN(deg)": 30.0,
        "Satellite Name": "Test1 132",
        "Satellite Number": 132,
        "Semi-Major Axis(m)": 6980739.136638005,
        "Time(s)": 0
    },
    {
        "Altitude(m)": 604900.028159223,
        "Argument of Periapsis(deg)": 0.00010418945913296404,
        "Eccentricity": 0.0,
        "Inclination(deg)": 60.0,
        "Latitude(deg)": 0.44768336197411257,
        "Longitude(deg)": -69.75434964509134,
        "Mean Anomaly(deg)": 0.6201061454618275,
        "RAAN(deg)": 29.99957995086026,
        "Satellite Name": "Test1 132",
        "Satellite Number": 132,
        "Semi-Major Axis(m)": 6980739.136638005,
        "Time(s)": 10
    }
]